OBJECT_NAME,OBJECT_ID,EPOCH,MEAN_MOTION,ECCENTRICITY,INCLINATION,RA_OF_ASC_NODE,ARG_OF_PERICENTER,MEAN_ANOMALY,EPHEMERIS_TYPE,CLASSIFICATION_TYPE,NORAD_CAT_ID,ELEMENT_SET_NO,REV_AT_EPOCH,BSTAR,MEAN_MOTION_DOT,MEAN_MOTION_DDOT
ONEWEB-0423,2022-012F,2026-06-29T12:32:06.904032,13.17651781,.0001855,87.9137,3.4096,86.5288,273.6056,0,U,51627,999,21532,.15708E-3,.74E-6,0
ONEWEB-0425,2022-012G,2026-06-29T13:18:41.276160,13.10371930,.0002036,87.8826,33.8035,75.1448,284.9904,0,U,51628,999,21094,-.11312E-2,-.382E-5,0
ONEWEB-0428,2022-012H,2026-06-29T12:49:22.221408,13.10371892,.0001813,87.8817,33.8144,85.4229,274.7106,0,U,51629,999,21090,-.13449E-2,-.457E-5,0
ONEWEB-0431,2022-012J,2026-06-29T12:05:09.572064,13.10374026,.0002008,87.8823,33.8128,102.8766,257.2585,0,U,51630,999,21095,.19955E-2,.709E-5,0
ONEWEB-0434,2022-012K,2026-06-29T13:23:44.672352,13.10370686,.0002019,87.8828,33.8280,66.3152,293.8187,0,U,51631,999,21094,-.62984E-3,-.207E-5,0
ONEWEB-0435,2022-012L,2026-06-29T13:33:17.873280,13.10375152,.0001619,87.8823,33.8115,93.5992,266.5321,0,U,51632,999,21093,-.34701E-4,.1E-7,0
ONEWEB-0436,2022-012M,2026-06-29T12:19:58.486368,13.17650065,.0001726,87.9141,3.3935,95.7814,264.3514,0,U,51633,999,21530,.57222E-4,.35E-6,0
ONEWEB-0438,2022-012N,2026-06-29T13:11:20.785632,13.10375657,.0001962,87.8823,33.8183,80.0868,280.0480,0,U,51634,999,21096,-.16126E-2,-.55E-5,0
ONEWEB-0439,2022-012P,2026-06-29T13:16:14.156832,13.10375403,.0001801,87.8820,33.8051,82.4233,277.7099,0,U,51635,999,21094,-.1257E-2,-.426E-5,0
ONEWEB-0442,2022-012Q,2026-06-29T12:09:04.411584,13.17649867,.0002165,87.9131,3.4269,75.3047,284.8324,0,U,51636,999,21529,.10777E-3,.55E-6,0
ONEWEB-0443,2022-012R,2026-06-29T12:36:58.479840,13.17649607,.0001555,87.9132,3.4242,81.9065,278.2243,0,U,51637,999,21534,-.14239E-3,-.42E-6,0
ONEWEB-0444,2022-012S,2026-06-29T13:01:34.444992,13.10373949,.000165,87.8820,33.8058,82.5640,277.5675,0,U,51638,999,21095,-.17708E-2,-.605E-5,0
ONEWEB-0445,2022-012T,2026-06-29T13:30:51.242112,13.10374881,.0002102,87.8835,33.7905,87.9447,272.1921,0,U,51639,999,21096,.1481E-3,.64E-6,0
ONEWEB-0446,2022-012U,2026-06-29T12:59:06.052992,13.10381122,.0002094,87.8820,33.8232,86.9163,273.2204,0,U,51640,999,21094,-.17011E-2,-.581E-5,0
ONEWEB-0448,2022-012V,2026-06-29T13:06:27.822240,13.10370420,.0001843,87.8819,33.8191,84.9143,275.2195,0,U,51641,999,21091,.10852E-2,.391E-5,0
ONEWEB-0449,2022-012W,2026-06-29T13:13:46.668576,13.10380652,.0002222,87.8824,33.8033,72.5045,287.6325,0,U,51642,999,21092,-.1399E-2,-.476E-5,0
ONEWEB-0451,2022-012X,2026-06-29T12:15:07.752960,13.17650220,.0001873,87.9143,3.3921,82.9567,277.1777,0,U,51643,999,21528,.10983E-3,.56E-6,0
ONEWEB-0452,2022-012Y,2026-06-29T12:12:40.904064,13.17650205,.0001683,87.9132,3.4281,81.1407,278.9915,0,U,51644,999,21529,.12643E-3,.62E-6,0
ONEWEB-0456,2022-012AA,2026-06-29T13:25:57.069984,13.10374508,.0001704,87.8836,33.7895,87.1755,272.9567,0,U,51646,999,21096,-.41511E-3,-.132E-5,0
ONEWEB-0457,2022-012AB,2026-06-29T12:54:03.447360,13.10372954,.0002199,87.8818,33.8112,83.9481,276.1896,0,U,51647,999,21096,-.15536E-2,-.53E-5,0
ONEWEB-0458,2022-012AC,2026-06-29T13:24:46.044000,13.10376412,.000171,87.8829,33.7952,78.6882,281.4437,0,U,51648,999,21092,-.65355E-3,-.215E-5,0
ONEWEB-0461,2022-012AD,2026-06-29T12:44:17.005632,13.17649460,.0002005,87.9141,3.4020,89.4834,270.6527,0,U,51649,999,21551,.13016E-3,.63E-6,0
ONEWEB-0463,2022-012AE,2026-06-29T12:17:33.635040,13.17649710,.0001998,87.9131,3.4269,90.3873,269.7488,0,U,51650,999,21529,.1167E-3,.58E-6,0
ONEWEB-0464,2022-012AF,2026-06-29T13:21:01.243296,13.10401510,.0001856,87.8839,33.8178,103.1635,256.9700,0,U,51651,999,21094,.53107E-2,.1868E-4,0
ONEWEB-0468,2022-012AG,2026-06-29T13:28:23.855808,13.10374113,.0001561,87.8823,33.8091,85.9924,274.1382,0,U,51652,999,21092,-.237E-3,-.7E-6,0
ONEWEB-0473,2022-012AH,2026-06-29T13:08:55.814208,13.10376054,.0001829,87.8822,33.8146,82.6214,277.5121,0,U,51653,999,21092,-.17228E-2,-.589E-5,0
ONEWEB-0474,2022-012AJ,2026-06-29T12:56:40.398144,13.10371829,.000149,87.8828,33.8013,82.9656,277.1641,0,U,51654,999,21091,-.17732E-2,-.606E-5,0
ONEWEB-0475,2022-012AK,2026-06-29T12:34:32.570976,13.17658657,.000125,87.9132,3.4178,87.0841,273.0434,0,U,51655,999,21531,-.45254E-2,-.1744E-4,0
ONEWEB-0490,2022-138A,2026-06-29T08:11:10.577760,13.19715970,.0001875,87.9188,302.5463,106.8262,253.3077,0,U,54113,999,17843,.54223E-2,.2184E-4,0
ONEWEB-0492,2022-138B,2026-06-29T08:47:33.432288,13.19726871,.0002049,87.9181,302.5423,106.9983,253.1374,0,U,54114,999,17844,.26616E-3,.12E-5,0
ONEWEB-0495,2022-138C,2026-06-29T08:15:43.259616,13.19725760,.0001617,87.9181,302.5490,120.0856,240.0437,0,U,54115,999,17842,.12966E-3,.65E-6,0
