[
  {
    "name": "ONEWEB-0423",
    "noradId": "51627",
    "line1": "1 51627U 22012F   26180.52230213  .00000074  00000+0  15708-3 0  9997",
    "line2": "2 51627  87.9137   3.4096 0001855  86.5288 273.6056 13.17651781215328"
  },
  {
    "name": "ONEWEB-0425",
    "noradId": "51628",
    "line1": "1 51628U 22012G   26180.55464440 -.00000382  00000+0 -11312-2 0  9992",
    "line2": "2 51628  87.8826  33.8035 0002036  75.1448 284.9904 13.10371930210945"
  },
  {
    "name": "ONEWEB-0428",
    "noradId": "51629",
    "line1": "1 51629U 22012H   26180.53428497 -.00000457  00000+0 -13449-2 0  9999",
    "line2": "2 51629  87.8817  33.8144 0001813  85.4229 274.7106 13.10371892210904"
  },
  {
    "name": "ONEWEB-0431",
    "noradId": "51630",
    "line1": "1 51630U 22012J   26180.50358301  .00000709  00000+0  19955-2 0  9990",
    "line2": "2 51630  87.8823  33.8128 0002008 102.8766 257.2585 13.10374026210956"
  },
  {
    "name": "ONEWEB-0434",
    "noradId": "51631",
    "line1": "1 51631U 22012K   26180.55815593 -.00000207  00000+0 -62984-3 0  9993",
    "line2": "2 51631  87.8828  33.8280 0002019  66.3152 293.8187 13.10370686210947"
  },
  {
    "name": "ONEWEB-0435",
    "noradId": "51632",
    "line1": "1 51632U 22012L   26180.56479020  .00000001  00000+0 -34701-4 0  9994",
    "line2": "2 51632  87.8823  33.8115 0001619  93.5992 266.5321 13.10375152210938"
  },
  {
    "name": "ONEWEB-0436",
    "noradId": "51633",
    "line1": "1 51633U 22012M   26180.51387137  .00000035  00000+0  57222-4 0  9996",
    "line2": "2 51633  87.9141   3.3935 0001726  95.7814 264.3514 13.17650065215303"
  },
  {
    "name": "ONEWEB-0438",
    "noradId": "51634",
    "line1": "1 51634U 22012N   26180.54954613 -.00000550  00000+0 -16126-2 0  9999",
    "line2": "2 51634  87.8823  33.8183 0001962  80.0868 280.0480 13.10375657210969"
  },
  {
    "name": "ONEWEB-0439",
    "noradId": "51635",
    "line1": "1 51635U 22012P   26180.55294163 -.00000426  00000+0 -12570-2 0  9999",
    "line2": "2 51635  87.8820  33.8051 0001801  82.4233 277.7099 13.10375403210941"
  },
  {
    "name": "ONEWEB-0442",
    "noradId": "51636",
    "line1": "1 51636U 22012Q   26180.50630106  .00000055  00000+0  10777-3 0  9990",
    "line2": "2 51636  87.9131   3.4269 0002165  75.3047 284.8324 13.17649867215298"
  },
  {
    "name": "ONEWEB-0443",
    "noradId": "51637",
    "line1": "1 51637U 22012R   26180.52567685 -.00000042  00000+0 -14239-3 0  9999",
    "line2": "2 51637  87.9132   3.4242 0001555  81.9065 278.2243 13.17649607215341"
  },
  {
    "name": "ONEWEB-0444",
    "noradId": "51638",
    "line1": "1 51638U 22012S   26180.54275978 -.00000605  00000+0 -17708-2 0  9991",
    "line2": "2 51638  87.8820  33.8058 0001650  82.5640 277.5675 13.10373949210958"
  },
  {
    "name": "ONEWEB-0445",
    "noradId": "51639",
    "line1": "1 51639U 22012T   26180.56309308  .00000064  00000+0  14810-3 0  9998",
    "line2": "2 51639  87.8835  33.7905 0002102  87.9447 272.1921 13.10374881210964"
  },
  {
    "name": "ONEWEB-0446",
    "noradId": "51640",
    "line1": "1 51640U 22012U   26180.54104228 -.00000581  00000+0 -17011-2 0  9993",
    "line2": "2 51640  87.8820  33.8232 0002094  86.9163 273.2204 13.10381122210948"
  },
  {
    "name": "ONEWEB-0448",
    "noradId": "51641",
    "line1": "1 51641U 22012V   26180.54615535  .00000391  00000+0  10852-2 0  9995",
    "line2": "2 51641  87.8819  33.8191 0001843  84.9143 275.2195 13.10370420210915"
  },
  {
    "name": "ONEWEB-0449",
    "noradId": "51642",
    "line1": "1 51642U 22012W   26180.55123459 -.00000476  00000+0 -13990-2 0  9998",
    "line2": "2 51642  87.8824  33.8033 0002222  72.5045 287.6325 13.10380652210924"
  },
  {
    "name": "ONEWEB-0451",
    "noradId": "51643",
    "line1": "1 51643U 22012X   26180.51050640  .00000056  00000+0  10983-3 0  9998",
    "line2": "2 51643  87.9143   3.3921 0001873  82.9567 277.1777 13.17650220215280"
  },
  {
    "name": "ONEWEB-0452",
    "noradId": "51644",
    "line1": "1 51644U 22012Y   26180.50880676  .00000062  00000+0  12643-3 0  9990",
    "line2": "2 51644  87.9132   3.4281 0001683  81.1407 278.9915 13.17650205215299"
  },
  {
    "name": "ONEWEB-0456",
    "noradId": "51646",
    "line1": "1 51646U 22012AA  26180.55968831 -.00000132  00000+0 -41511-3 0  9993",
    "line2": "2 51646  87.8836  33.7895 0001704  87.1755 272.9567 13.10374508210962"
  },
  {
    "name": "ONEWEB-0457",
    "noradId": "51647",
    "line1": "1 51647U 22012AB  26180.53753990 -.00000530  00000+0 -15536-2 0  9999",
    "line2": "2 51647  87.8818  33.8112 0002199  83.9481 276.1896 13.10372954210969"
  },
  {
    "name": "ONEWEB-0458",
    "noradId": "51648",
    "line1": "1 51648U 22012AC  26180.55886625 -.00000215  00000+0 -65355-3 0  9999",
    "line2": "2 51648  87.8829  33.7952 0001710  78.6882 281.4437 13.10376412210926"
  },
  {
    "name": "ONEWEB-0461",
    "noradId": "51649",
    "line1": "1 51649U 22012AD  26180.53075238  .00000063  00000+0  13016-3 0  9994",
    "line2": "2 51649  87.9141   3.4020 0002005  89.4834 270.6527 13.17649460215513"
  },
  {
    "name": "ONEWEB-0463",
    "noradId": "51650",
    "line1": "1 51650U 22012AE  26180.51219485  .00000058  00000+0  11670-3 0  9996",
    "line2": "2 51650  87.9131   3.4269 0001998  90.3873 269.7488 13.17649710215291"
  },
  {
    "name": "ONEWEB-0464",
    "noradId": "51651",
    "line1": "1 51651U 22012AF  26180.55626439  .00001868  00000+0  53107-2 0  9992",
    "line2": "2 51651  87.8839  33.8178 0001856 103.1635 256.9700 13.10401510210943"
  },
  {
    "name": "ONEWEB-0468",
    "noradId": "51652",
    "line1": "1 51652U 22012AG  26180.56138722 -.00000070  00000+0 -23700-3 0  9990",
    "line2": "2 51652  87.8823  33.8091 0001561  85.9924 274.1382 13.10374113210926"
  },
  {
    "name": "ONEWEB-0473",
    "noradId": "51653",
    "line1": "1 51653U 22012AH  26180.54786822 -.00000589  00000+0 -17228-2 0  9991",
    "line2": "2 51653  87.8822  33.8146 0001829  82.6214 277.5121 13.10376054210924"
  },
  {
    "name": "ONEWEB-0474",
    "noradId": "51654",
    "line1": "1 51654U 22012AJ  26180.53935646 -.00000606  00000+0 -17732-2 0  9991",
    "line2": "2 51654  87.8828  33.8013 0001490  82.9656 277.1641 13.10371829210918"
  },
  {
    "name": "ONEWEB-0475",
    "noradId": "51655",
    "line1": "1 51655U 22012AK  26180.52398809 -.00001744  00000+0 -45254-2 0  9999",
    "line2": "2 51655  87.9132   3.4178 0001250  87.0841 273.0434 13.17658657215317"
  },
  {
    "name": "ONEWEB-0490",
    "noradId": "54113",
    "line1": "1 54113U 22138A   26180.34109465  .00002184  00000+0  54223-2 0  9991",
    "line2": "2 54113  87.9188 302.5463 0001875 106.8262 253.3077 13.19715970178439"
  },
  {
    "name": "ONEWEB-0492",
    "noradId": "54114",
    "line1": "1 54114U 22138B   26180.36635917  .00000120  00000+0  26616-3 0  9994",
    "line2": "2 54114  87.9181 302.5423 0002049 106.9983 253.1374 13.19726871178445"
  },
  {
    "name": "ONEWEB-0495",
    "noradId": "54115",
    "line1": "1 54115U 22138C   26180.34425069  .00000065  00000+0  12966-3 0  9999",
    "line2": "2 54115  87.9181 302.5490 0001617 120.0856 240.0437 13.19725760178425"
  }
]